{"type": "FeatureCollection", "features": [ {"type": "Feature", "properties": {"norad_id": 31210, "name": "FENGYUN 1C DEB", "group": "fengyun-1c-debris", "lat": -24.51888508982495, "lon": -0.3223052005255835, "alt_km": 869.655121810295, "timestamp": "2025-12-20T20:38:44.723713+00:00", "meta": {"OBJECT_NAME": "FENGYUN 1C DEB", "OBJECT_ID": "1999-025BKQ", "EPOCH": "2025-12-20T05:44:41.256096", "MEAN_MOTION": 14.12005396, "ECCENTRICITY": 0.0017465, "INCLINATION": 98.7185, "RA_OF_ASC_NODE": 355.0606, "ARG_OF_PERICENTER": 134.4184, "MEAN_ANOMALY": 286.6721, "EPHEMERIS_TYPE": 0, "CLASSIFICATION_TYPE": "U", "NORAD_CAT_ID": 31210, "ELEMENT_SET_NO": 999, "REV_AT_EPOCH": 96073, "BSTAR": 0.00028459, "MEAN_MOTION_DOT": 4.79e-06, "MEAN_MOTION_DDOT": 0}, "tle": {"line1": "1 31210U 99025BKQ 25354.23936639  .00000479  00000+0  28459-3 0  9992", "line2": "2 31210  98.7185 355.0606 0017465 134.4184 286.6721 14.12005396960738"}}, "geometry": {"type": "Point", "coordinates": [-0.3223052005255835, -24.51888508982495]}}, {"type": "Feature", "properties": {"norad_id": 31211, "name": "FENGYUN 1C DEB", "group": "fengyun-1c-debris", "lat": -0.5985271028150752, "lon": 30.699817092997346, "alt_km": 813.5060329776097, "timestamp": "2025-12-20T20:38:44.723723+00:00", "meta": {"OBJECT_NAME": "FENGYUN 1C DEB", "OBJECT_ID": "1999-025BKR", "EPOCH": "2025-12-18T21:18:02.771712", "MEAN_MOTION": 14.2007878, "ECCENTRICITY": 0.00504135, "INCLINATION": 98.6726, "RA_OF_ASC_NODE": 28.6751, "ARG_OF_PERICENTER": 71.8452, "MEAN_ANOMALY": 288.8205, "EPHEMERIS_TYPE": 0, "CLASSIFICATION_TYPE": "U", "NORAD_CAT_ID": 31211, "ELEMENT_SET_NO": 999, "REV_AT_EPOCH": 63380, "BSTAR": 0.00079976901, "MEAN_MOTION_DOT": 1.683e-05, "MEAN_MOTION_DDOT": 0}, "tle": {"line1": "1 31211U 99025BKR 25352.88753208  .00001683  00000+0  79977-3 0  9990", "line2": "2 31211  98.6726  28.6751 0050413  71.8452 288.8205 14.20078780633807"}}, "geometry": {"type": "Point", "coordinates": [30.699817092997346, -0.5985271028150752]}}, {"type": "Feature", "properties": {"norad_id": 31212, "name": "FENGYUN 1C DEB", "group": "fengyun-1c-debris", "lat": 42.63677085169844, "lon": -144.83302826583505, "alt_km": 791.9182276545844, "timestamp": "2025-12-20T20:38:44.723733+00:00", "meta": {"OBJECT_NAME": "FENGYUN 1C DEB", "OBJECT_ID": "1999-025BKS", "EPOCH": "2025-12-14T12:45:56.653344", "MEAN_MOTION": 14.13124373, "ECCENTRICITY": 0.00752745, "INCLINATION": 99.2196, "RA_OF_ASC_NODE": 20.0508, "ARG_OF_PERICENTER": 167.0098, "MEAN_ANOMALY": 193.3035, "EPHEMERIS_TYPE": 0, "CLASSIFICATION_TYPE": "U", "NORAD_CAT_ID": 31212, "ELEMENT_SET_NO": 999, "REV_AT_EPOCH": 95684, "BSTAR": 0.0014706798, "MEAN_MOTION_DOT": 2.778e-05, "MEAN_MOTION_DDOT": 0}, "tle": {"line1": "1 31212U 99025BKS 25348.53190571  .00002778  00000+0  14707-2 0  9991", "line2": "2 31212  99.2196  20.0508 0075274 167.0098 193.3035 14.13124373956843"}}, "geometry": {"type": "Point", "coordinates": [-144.83302826583505, 42.63677085169844]}}, {"type": "Feature", "properties": {"norad_id": 31215, "name": "FENGYUN 1C DEB", "group": "fengyun-1c-debris", "lat": 2.266029135156836, "lon": -161.05158626392176, "alt_km": 757.6294995711041, "timestamp": "2025-12-20T20:38:44.723744+00:00", "meta": {"OBJECT_NAME": "FENGYUN 1C DEB", "OBJECT_ID": "1999-025BKV", "EPOCH": "2025-12-15T08:19:35.240160", "MEAN_MOTION": 14.33803054, "ECCENTRICITY": 0.00700435, "INCLINATION": 99.0713, "RA_OF_ASC_NODE": 193.5324, "ARG_OF_PERICENTER": 316.6718, "MEAN_ANOMALY": 42.897, "EPHEMERIS_TYPE": 0, "CLASSIFICATION_TYPE": "U", "NORAD_CAT_ID": 31215, "ELEMENT_SET_NO": 999, "REV_AT_EPOCH": 96563, "BSTAR": 0.00074953738, "MEAN_MOTION_DOT": 2.094e-05, "MEAN_MOTION_DDOT": 0}, "tle": {"line1": "1 31215U 99025BKV 25349.34693565  .00002094  00000+0  74954-3 0  9997", "line2": "2 31215  99.0713 193.5324 0070043 316.6718  42.8970 14.33803054965636"}}, "geometry": {"type": "Point", "coordinates": [-161.05158626392176, 2.266029135156836]}}, {"type": "Feature", "properties": {"norad_id": 31217, "name": "FENGYUN 1C DEB", "group": "fengyun-1c-debris", "lat": 38.98507333083595, "lon": -4.544608550153563, "alt_km": 838.8959964059968, "timestamp": "2025-12-20T20:38:44.723754+00:00", "meta": {"OBJECT_NAME": "FENGYUN 1C DEB", "OBJECT_ID": "1999-025BKX", "EPOCH": "2025-12-17T17:55:15.855456", "MEAN_MOTION": 14.17549567, "ECCENTRICITY": 0.0099896, "INCLINATION": 98.6404, "RA_OF_ASC_NODE": 359.4964, "ARG_OF_PERICENTER": 145.7057, "MEAN_ANOMALY": 215.0622, "EPHEMERIS_TYPE": 0, "CLASSIFICATION_TYPE": "U", "NORAD_CAT_ID": 31217, "ELEMENT_SET_NO": 999, "REV_AT_EPOCH": 96419, "BSTAR": 0.00045754541, "MEAN_MOTION_DOT": 9.34e-06, "MEAN_MOTION_DDOT": 0}, "tle": {"line1": "1 31217U 99025BKX 25351.74671129  .00000934  00000+0  45755-3 0  9996", "line2": "2 31217  98.6404 359.4964 0099896 145.7057 215.0622 14.17549567964193"}}, "geometry": {"type": "Point", "coordinates": [-4.544608550153563, 38.98507333083595]}}, {"type": "Feature", "properties": {"norad_id": 31218, "name": "FENGYUN 1C DEB", "group": "fengyun-1c-debris", "lat": 70.47217680755584, "lon": -48.21198656547523, "alt_km": 647.5103536126162, "timestamp": "2025-12-20T20:38:44.723764+00:00", "meta": {"OBJECT_NAME": "FENGYUN 1C DEB", "OBJECT_ID": "1999-025BKY", "EPOCH": "2025-12-19T06:39:31.870944", "MEAN_MOTION": 14.72783214, "ECCENTRICITY": 0.0011838, "INCLINATION": 98.8431, "RA_OF_ASC_NODE": 104.029, "ARG_OF_PERICENTER": 6.0846, "MEAN_ANOMALY": 354.0501, "EPHEMERIS_TYPE": 0, "CLASSIFICATION_TYPE": "U", "NORAD_CAT_ID": 31218, "ELEMENT_SET_NO": 999, "REV_AT_EPOCH": 97179, "BSTAR": 0.0026727, "MEAN_MOTION_DOT": 0.00017081, "MEAN_MOTION_DDOT": 0}, "tle": {"line1": "1 31218U 99025BKY 25353.27745221  .00017081  00000+0  26727-2 0  9990", "line2": "2 31218  98.8431 104.0290 0011838   6.0846 354.0501 14.72783214971791"}}, "geometry": {"type": "Point", "coordinates": [-48.21198656547523, 70.47217680755584]}}, {"type": "Feature", "properties": {"norad_id": 31219, "name": "FENGYUN 1C DEB", "group": "fengyun-1c-debris", "lat": 47.85688319249767, "lon": -5.3854434049562165, "alt_km": 857.0433759892248, "timestamp": "2025-12-20T20:38:44.723774+00:00", "meta": {"OBJECT_NAME": "FENGYUN 1C DEB", "OBJECT_ID": "1999-025BKZ", "EPOCH": "2025-12-20T00:01:56.044704", "MEAN_MOTION": 14.13821823, "ECCENTRICITY": 0.00791976, "INCLINATION": 99.2838, "RA_OF_ASC_NODE": 4.1367, "ARG_OF_PERICENTER": 156.8801, "MEAN_ANOMALY": 203.5965, "EPHEMERIS_TYPE": 0, "CLASSIFICATION_TYPE": "U", "NORAD_CAT_ID": 31219, "ELEMENT_SET_NO": 999, "REV_AT_EPOCH": 95672, "BSTAR": 0.00086388981, "MEAN_MOTION_DOT": 1.638e-05, "MEAN_MOTION_DDOT": 0}, "tle": {"line1": "1 31219U 99025BKZ 25354.00134311  .00001638  00000+0  86389-3 0  9997", "line2": "2 31219  99.2838   4.1367 0079197 156.8801 203.5965 14.13821823956722"}}, "geometry": {"type": "Point", "coordinates": [-5.3854434049562165, 47.85688319249767]}}, {"type": "Feature", "properties": {"norad_id": 31222, "name": "FENGYUN 1C DEB", "group": "fengyun-1c-debris", "lat": 7.48551206220422, "lon": -113.18750589988349, "alt_km": 648.787157959935, "timestamp": "2025-12-20T20:38:44.723784+00:00", "meta": {"OBJECT_NAME": "FENGYUN 1C DEB", "OBJECT_ID": "1999-025BLC", "EPOCH": "2025-12-19T03:48:46.221120", "MEAN_MOTION": 14.97926386, "ECCENTRICITY": 0.01702067, "INCLINATION": 98.6154, "RA_OF_ASC_NODE": 63.794, "ARG_OF_PERICENTER": 48.6685, "MEAN_ANOMALY": 312.9038, "EPHEMERIS_TYPE": 0, "CLASSIFICATION_TYPE": "U", "NORAD_CAT_ID": 31222, "ELEMENT_SET_NO": 999, "REV_AT_EPOCH": 79, "BSTAR": 0.00047463216, "MEAN_MOTION_DOT": 7.472e-05, "MEAN_MOTION_DDOT": 0}, "tle": {"line1": "1 31222U 99025BLC 25353.15886830  .00007472  00000+0  47463-3 0  9998", "line2": "2 31222  98.6154  63.7940 0170206  48.6685 312.9038 14.97926386   794"}}, "geometry": {"type": "Point", "coordinates": [-113.18750589988349, 7.48551206220422]}}, {"type": "Feature", "properties": {"norad_id": 31223, "name": "FENGYUN 1C DEB", "group": "fengyun-1c-debris", "lat": -2.5470877317449747, "lon": -118.83887383178714, "alt_km": 809.8856158972685, "timestamp": "2025-12-20T20:38:44.723795+00:00", "meta": {"OBJECT_NAME": "FENGYUN 1C DEB", "OBJECT_ID": "1999-025BLD", "EPOCH": "2025-12-17T15:56:44.115936", "MEAN_MOTION": 13.77273936, "ECCENTRICITY": 0.0243496, "INCLINATION": 99.0066, "RA_OF_ASC_NODE": 237.7256, "ARG_OF_PERICENTER": 27.8459, "MEAN_ANOMALY": 333.5484, "EPHEMERIS_TYPE": 0, "CLASSIFICATION_TYPE": "U", "NORAD_CAT_ID": 31223, "ELEMENT_SET_NO": 999, "REV_AT_EPOCH": 92796, "BSTAR": 0.0021509612, "MEAN_MOTION_DOT": 2.615e-05, "MEAN_MOTION_DDOT": 0}, "tle": {"line1": "1 31223U 99025BLD 25351.66439949  .00002615  00000+0  21510-2 0  9996", "line2": "2 31223  99.0066 237.7256 0243496  27.8459 333.5484 13.77273936927969"}}, "geometry": {"type": "Point", "coordinates": [-118.83887383178714, -2.5470877317449747]}}, {"type": "Feature", "properties": {"norad_id": 31224, "name": "FENGYUN 1C DEB", "group": "fengyun-1c-debris", "lat": -79.06997018553623, "lon": 36.10397614773467, "alt_km": 886.473078146586, "timestamp": "2025-12-20T20:38:44.723805+00:00", "meta": {"OBJECT_NAME": "FENGYUN 1C DEB", "OBJECT_ID": "1999-025BLE", "EPOCH": "2025-12-17T05:43:55.673184", "MEAN_MOTION": 14.28902802, "ECCENTRICITY": 0.01582842, "INCLINATION": 98.3697, "RA_OF_ASC_NODE": 342.954, "ARG_OF_PERICENTER": 149.6216, "MEAN_ANOMALY": 228.2145, "EPHEMERIS_TYPE": 0, "CLASSIFICATION_TYPE": "U", "NORAD_CAT_ID": 31224, "ELEMENT_SET_NO": 999, "REV_AT_EPOCH": 69315, "BSTAR": 0.00023481345, "MEAN_MOTION_DOT": 6.35e-06, "MEAN_MOTION_DDOT": 0}, "tle": {"line1": "1 31224U 99025BLE 25351.23883881  .00000635  00000+0  23481-3 0  9998", "line2": "2 31224  98.3697 342.9540 0158284 149.6216 228.2145 14.28902802693154"}}, "geometry": {"type": "Point", "coordinates": [36.10397614773467, -79.06997018553623]}}]}